IRIDIUM 144             
1 43249U 18030A   26003.01874337 -.00000042  00000+0 -22081-4 0  9992
2 43249  86.3965 359.4473 0002194  87.1794 272.9653 14.34216614406464
IRIDIUM 149             
1 43250U 18030B   26003.23439152  .00000012  00000+0 -26037-5 0  9992
2 43250  86.3965 359.3259 0002073  89.4532 270.6901 14.34216988406519
IRIDIUM 157             
1 43251U 18030C   26003.25341863 -.00000018  00000+0 -13448-4 0  9994
2 43251  86.3963 359.3675 0001904  86.8606 273.2808 14.34216743406496
IRIDIUM 140             
1 43252U 18030D   26003.27244735 -.00000043  00000+0 -22391-4 0  9992
2 43252  86.3968 359.3723 0002119  87.0136 273.1303 14.34216641406559
IRIDIUM 145             
1 43253U 18030E   26003.25976226 -.00000013  00000+0 -11843-4 0  9995
2 43253  86.3966 359.3506 0002308  84.4744 275.6715 14.34216902406489
IRIDIUM 146             
1 43254U 18030F   26003.24073209  .00000507  00000+0  17407-3 0  9991
2 43254  86.3968 359.3709 0002282  84.5249 275.6207 14.34222566406499
IRIDIUM 148             
1 43255U 18030G   26003.27878825  .00000181  00000+0  57456-4 0  9999
2 43255  86.3971 359.3957 0002124  86.5647 273.5792 14.34217290406537
IRIDIUM 142             
1 43256U 18030H   26003.24707218  .00000438  00000+0  14922-3 0  9999
2 43256  86.3967 359.3039 0002447  82.2361 277.9113 14.34216739406495
